GPS BIIR-2  (PRN 13)    
1 24876U 97035A   22049.70029000  .00000028  00000+0  00000+0 0  9994
2 24876  55.4952 160.3065 0056207  53.4915 307.0237  2.00563374180277
GPS BIIR-4  (PRN 20)    
1 26360U 00025A   22050.19112527  .00000002  00000+0  00000+0 0  9991
2 26360  53.9626  83.7532 0051611 182.1321 258.4636  2.00554348159606
GPS BIIR-6  (PRN 22)    
1 26605U 00071A   22050.44201036  .00000030  00000+0  00000+0 0  9997
2 26605  55.0766 157.3211 0131553 253.0628 141.1726  2.00565170155856
GPS BIIR-8  (PRN 16)    
1 27663U 03005A   22050.62375711  .00000031  00000+0  00000+0 0  9995
2 27663  55.5929 277.7387 0125985  39.8406 334.2411  2.00571490139652
GPS BIIR-9  (PRN 21)    
1 27704U 03010A   22050.58764036 -.00000053  00000+0  00000+0 0  9999
2 27704  54.9802  28.0795 0247330 302.2863 264.7410  2.00574629138443
GPS BIIR-11 (PRN 19)    
1 28190U 04009A   22050.62335395 -.00000061  00000+0  00000+0 0  9994
2 28190  56.0702 338.6899 0087733 115.6562  57.0905  2.00562625131281
GPS BIIR-13 (PRN 02)    
1 28474U 04045A   22050.16549464 -.00000052  00000+0  00000+0 0  9992
2 28474  55.3094  28.1915 0208613 277.2603 192.8028  2.00561355126765
GPS BIIRM-1 (PRN 17)    
1 28874U 05038A   22050.52390135 -.00000058  00000+0  00000+0 0  9994
2 28874  56.1413 336.1224 0138510 274.0642 207.6483  2.00553832120174
GPS BIIRM-2 (PRN 31)    
1 29486U 06042A   22050.47274587  .00000066  00000+0  00000+0 0  9994
2 29486  54.7323 213.9639 0103853  20.4494 342.9943  2.00561184112736
GPS BIIRM-3 (PRN 12)    
1 29601U 06052A   22049.91715272  .00000034  00000+0  00000+0 0  9997
2 29601  55.5967 276.7000 0084669  71.0529 289.9275  2.00572202111731
GPS BIIRM-4 (PRN 15)    
1 32260U 07047A   22050.72334894  .00000023  00000+0  00000+0 0  9993
2 32260  53.2825 145.4228 0137401  61.2577 300.1477  2.00555052105170
GPS BIIRM-5 (PRN 29)    
1 32384U 07062A   22050.27830400 -.00000059  00000+0  00000+0 0  9991
2 32384  56.2568 336.8782 0016684 133.9539  35.5374  2.00555130103843
GPS BIIRM-6 (PRN 07)    
1 32711U 08012A   22049.64453945  .00000059  00000+0  00000+0 0  9994
2 32711  54.4901 212.9598 0157436 229.2892 129.2993  2.00561068102078
GPS BIIRM-8 (PRN 05)    
1 35752U 09043A   22050.11554865  .00000009  00000+0  00000+0 0  9999
2 35752  54.9806  90.2935 0056664  56.5041 301.7882  2.00564132 91688
GPS BIIF-1  (PRN 25)    
1 36585U 10022A   22050.20791521  .00000038  00000+0  00000+0 0  9997
2 36585  54.8769 272.2894 0103096  55.5813 125.3722  2.00559233 85923
GPS BIIF-2  (PRN 01)    
1 37753U 11036A   22049.81301656 -.00000045  00000+0  00000+0 0  9991
2 37753  56.5526  33.3237 0112420  49.7091 290.7338  2.00564623 77595
GPS BIIF-3  (PRN 24)    
1 38833U 12053A   22049.82385495  .00000056  00000+0  00000+0 0  9996
2 38833  53.5432 208.2089 0121957  45.5535 315.3972  2.00560388 67768
GPS BIIF-4  (PRN 27)    
1 39166U 13023A   22050.18263783 -.00000055  00000+0  00000+0 0  9990
2 39166  55.7734 332.5550 0101191  35.7352 324.9708  2.00566587 64214
GPS BIIF-5  (PRN 30)    
1 39533U 14008A   22049.67887371  .00000058  00000+0  00000+0 0  9991
2 39533  53.6400 213.7084 0056215 204.9811 154.7122  2.00574187 58001
GPS BIIF-6  (PRN 06)    
1 39741U 14026A   22049.95969662 -.00000045  00000+0  00000+0 0  9994
2 39741  56.5168  32.8442 0028808 302.7065  57.0205  2.00564348 56865
GPS BIIF-7  (PRN 09)    
1 40105U 14045A   22049.55330810  .00000023  00000+0  00000+0 0  9999
2 40105  54.6664 151.5519 0020269 109.2444 250.9908  2.00569625 54392
GPS BIIF-8  (PRN 03)    
1 40294U 14068A   22050.42468226  .00000011  00000+0  00000+0 0  9991
2 40294  55.7256  92.5988 0036987  52.6579 307.7597  2.00563238 53543
GPS BIIF-9  (PRN 26)    
1 40534U 15013A   22050.55661485  .00000039  00000+0  00000+0 0  9995
2 40534  53.7794 269.5780 0068028  19.4176 340.8926  2.00559703 50167
GPS BIIF-10 (PRN 08)    
1 40730U 15033A   22050.22093808 -.00000055  00000+0  00000+0 0  9996
2 40730  55.2748 331.4386 0072766   4.4275 355.6725  2.00558138 48327
GPS BIIF-11 (PRN 10)    
1 41019U 15062A   22050.27015102  .00000011  00000+0  00000+0 0  9996
2 41019  55.7156  92.4453 0076501 217.3726 142.1724  2.00563015 46160
GPS BIIF-12 (PRN 32)    
1 41328U 16007A   22050.36759127  .00000028  00000+0  00000+0 0  9999
2 41328  54.8873 152.1623 0057613 226.9469 132.5889  2.00551367 44176
GPS BIII-1  (PRN 04)    
1 43873U 18109A   22050.49054541  .00000029  00000+0  00000+0 0  9994
2 43873  55.0679 154.5509 0017382 192.5513 153.3095  2.00565971 23405
GPS BIII-2  (PRN 18)    
1 44506U 19056A   22049.98822350 -.00000046  00000+0  00000+0 0  9993
2 44506  55.6241  33.7622 0021081 184.3328  61.6983  2.00570070 18393
GPS BIII-3  (PRN 23)    
1 45854U 20041A   22050.24627115  .00000010  00000+0  00000+0 0  9999
2 45854  55.4321  91.0212 0019585 176.7094 194.8922  2.00560264 12378
GPS BIII-4  (PRN 14)    
1 46826U 20078A   22050.75912140  .00000033  00000+0  00000+0 0  9995
2 46826  54.6459 274.8695 0014372 182.1210 171.9712  2.00566291  9844
GPS BIII-5 (PRN 11)     
1 48859U 21054A   22050.12781144 -.00000045  00000+0  00000+0 0  9991
2 48859  55.1267  35.8141 0003028 211.2741 231.6539  2.00552079  5087
